{
    "links": {
        "self": "http://www.neowsapp.com/rest/v1/neo/3578919?api_key=iIulBulltgU6a56xZRHN4H3l9WmuAYTsLGpBGhQ2"
    },
    "id": "3578919",
    "neo_reference_id": "3578919",
    "name": "(2011 SO25)",
    "designation": "2011 SO25",
    "nasa_jpl_url": "http://ssd.jpl.nasa.gov/sbdb.cgi?sstr=3578919",
    "absolute_magnitude_h": 20.6,
    "estimated_diameter": {
        "kilometers": {
            "estimated_diameter_min": 0.2016299194,
            "estimated_diameter_max": 0.4508582062
        },
        "meters": {
            "estimated_diameter_min": 201.6299194428,
            "estimated_diameter_max": 450.8582061718
        },
        "miles": {
            "estimated_diameter_min": 0.1252869847,
            "estimated_diameter_max": 0.2801502144
        },
        "feet": {
            "estimated_diameter_min": 661.5155049046,
            "estimated_diameter_max": 1479.1936371367
        }
    },
    "is_potentially_hazardous_asteroid": false,
    "close_approach_data": [
        {
            "close_approach_date": "2011-11-05",
            "close_approach_date_full": "2011-Nov-05 17:55",
            "epoch_date_close_approach": 1320515700000,
            "relative_velocity": {
                "kilometers_per_second": "2.4517192828",
                "kilometers_per_hour": "8826.1894181872",
                "miles_per_hour": "5484.2508637619"
            },
            "miss_distance": {
                "astronomical": "0.3156644128",
                "lunar": "122.7934565792",
                "kilometers": "47222723.789680736",
                "miles": "29342839.9173407168"
            },
            "orbiting_body": "Earth"
        },
        {
            "close_approach_date": "2137-11-25",
            "close_approach_date_full": "2137-Nov-25 14:25",
            "epoch_date_close_approach": 5298445500000,
            "relative_velocity": {
                "kilometers_per_second": "8.9131978538",
                "kilometers_per_hour": "32087.5122735769",
                "miles_per_hour": "19937.9322791012"
            },
            "miss_distance": {
                "astronomical": "0.0958991253",
                "lunar": "37.3047597417",
                "kilometers": "14346304.879743111",
                "miles": "8914380.4869564918"
            },
            "orbiting_body": "Mars"
        },
        {
            "close_approach_date": "2164-11-22",
            "close_approach_date_full": "2164-Nov-22 04:17",
            "epoch_date_close_approach": 6150226620000,
            "relative_velocity": {
                "kilometers_per_second": "1.5958065299",
                "kilometers_per_hour": "5744.903507472",
                "miles_per_hour": "3569.6596266289"
            },
            "miss_distance": {
                "astronomical": "0.4079873644",
                "lunar": "158.7070847516",
                "kilometers": "61034040.701153828",
                "miles": "37924794.2956177064"
            },
            "orbiting_body": "Earth"
        },
        {
            "close_approach_date": "2191-10-29",
            "close_approach_date_full": "2191-Oct-29 02:19",
            "epoch_date_close_approach": 7000136340000,
            "relative_velocity": {
                "kilometers_per_second": "8.7981564442",
                "kilometers_per_hour": "31673.3631991286",
                "miles_per_hour": "19680.5961500363"
            },
            "miss_distance": {
                "astronomical": "0.0592178885",
                "lunar": "23.0357586265",
                "kilometers": "8858869.985497495",
                "miles": "5504646.555135631"
            },
            "orbiting_body": "Mars"
        }
    ],
    "orbital_data": {
        "orbit_id": "19",
        "orbit_determination_date": "2017-04-06 08:52:46",
        "first_observation_date": "2011-09-20",
        "last_observation_date": "2011-11-28",
        "data_arc_in_days": 69,
        "observations_used": 72,
        "orbit_uncertainty": "5",
        "minimum_orbit_intersection": ".288705",
        "jupiter_tisserand_invariant": "3.487",
        "epoch_osculation": "2459000.5",
        "eccentricity": ".4340227596539639",
        "semi_major_axis": "2.25932718294775",
        "inclination": "4.198680075917694",
        "ascending_node_longitude": "10.34899574174313",
        "orbital_period": "1240.415310680467",
        "perihelion_distance": "1.278727764043551",
        "perihelion_argument": "28.45182654703946",
        "aphelion_distance": "3.239926601851949",
        "perihelion_time": "2459584.056696473241",
        "mean_anomaly": "190.6370383197537",
        "mean_motion": ".2902253760496645",
        "equinox": "J2000",
        "orbit_class": {
            "orbit_class_type": "AMO",
            "orbit_class_description": "Near-Earth asteroid orbits similar to that of 1221 Amor",
            "orbit_class_range": "1.017 AU < q (perihelion) < 1.3 AU"
        }
    },
    "is_sentry_object": false
}